{
  "type": "FeatureCollection",
  "features": [
    {
      "type": "Feature",
      "properties": {
        "norad_id": 27954,
        "name": "GALAXY 13 (HORIZONS-1)",
        "group": "intelsat",
        "lat": -0.10894890418062239,
        "lon": 78.63040273562721,
        "alt_km": 35794.836126462804,
        "timestamp": "2025-12-12T09:49:08.395382+00:00",
        "meta_object_name": "GALAXY 13 (HORIZONS-1)",
        "meta_object_id": "2003-044A",
        "meta_epoch": "2025-12-12T03:20:38.467104",
        "meta_mean_motion": 1.00271277,
        "meta_eccentricity": 0.0002046,
        "meta_inclination": 0.934,
        "meta_ra_of_asc_node": 86.477,
        "meta_arg_of_pericenter": 167.0686,
        "meta_mean_anomaly": 87.7006,
        "meta_ephemeris_type": 0,
        "meta_classification_type": "U",
        "meta_norad_cat_id": 27954,
        "meta_element_set_no": 999,
        "meta_rev_at_epoch": 4469,
        "meta_bstar": 0,
        "meta_mean_motion_dot": 1.42e-06,
        "meta_mean_motion_ddot": 0,
        "tle_line1": "1 27954U 03044A   25346.13933411  .00000142  00000+0  00000+0 0  9998",
        "tle_line2": "2 27954   0.9340  86.4770 0002046 167.0686  87.7006  1.00271277 44691"
      },
      "geometry": {
        "type": "Point",
        "coordinates": [
          78.63040273562721,
          -0.10894890418062239
        ]
      }
    },
    {
      "type": "Feature",
      "properties": {
        "norad_id": 28358,
        "name": "INTELSAT 10-02",
        "group": "intelsat",
        "lat": -0.008330208058116472,
        "lon": -132.34237746626295,
        "alt_km": 35784.694726778835,
        "timestamp": "2025-12-12T09:49:08.395395+00:00",
        "meta_object_name": "INTELSAT 10-02",
        "meta_object_id": "2004-022A",
        "meta_epoch": "2025-12-12T01:29:25.948896",
        "meta_mean_motion": 1.00271277,
        "meta_eccentricity": 0.0001217,
        "meta_inclination": 0.0234,
        "meta_ra_of_asc_node": 65.5197,
        "meta_arg_of_pericenter": 235.151,
        "meta_mean_anomaly": 161.7375,
        "meta_ephemeris_type": 0,
        "meta_classification_type": "U",
        "meta_norad_cat_id": 28358,
        "meta_element_set_no": 999,
        "meta_rev_at_epoch": 7868,
        "meta_bstar": 0,
        "meta_mean_motion_dot": -2e-08,
        "meta_mean_motion_ddot": 0,
        "tle_line1": "1 28358U 04022A   25346.06210589 -.00000002  00000+0  00000+0 0  9996",
        "tle_line2": "2 28358   0.0234  65.5197 0001217 235.1510 161.7375  1.00271277 78684"
      },
      "geometry": {
        "type": "Point",
        "coordinates": [
          -132.34237746626295,
          -0.008330208058116472
        ]
      }
    },
    {
      "type": "Feature",
      "properties": {
        "norad_id": 28626,
        "name": "XM-3 (RHYTHM)",
        "group": "intelsat",
        "lat": -0.1687767941135057,
        "lon": -15.471852433013076,
        "alt_km": 36153.63458273306,
        "timestamp": "2025-12-12T09:49:08.395422+00:00",
        "meta_object_name": "XM-3 (RHYTHM)",
        "meta_object_id": "2005-008A",
        "meta_epoch": "2025-12-12T02:03:00.235296",
        "meta_mean_motion": 0.98952726,
        "meta_eccentricity": 0.0001522,
        "meta_inclination": 0.1732,
        "meta_ra_of_asc_node": 81.4641,
        "meta_arg_of_pericenter": 269.4596,
        "meta_mean_anomaly": 238.2962,
        "meta_ephemeris_type": 0,
        "meta_classification_type": "U",
        "meta_norad_cat_id": 28626,
        "meta_element_set_no": 999,
        "meta_rev_at_epoch": 4074,
        "meta_bstar": 0,
        "meta_mean_motion_dot": -1.71e-06,
        "meta_mean_motion_ddot": 0,
        "tle_line1": "1 28626U 05008A   25346.08541939 -.00000171  00000+0  00000+0 0  9994",
        "tle_line2": "2 28626   0.1732  81.4641 0001522 269.4596 238.2962  0.98952726 40749"
      },
      "geometry": {
        "type": "Point",
        "coordinates": [
          -15.471852433013076,
          -0.1687767941135057
        ]
      }
    },
    {
      "type": "Feature",
      "properties": {
        "norad_id": 28659,
        "name": "DIRECTV 8",
        "group": "intelsat",
        "lat": 0.021008481072049372,
        "lon": 109.57772330893975,
        "alt_km": 35797.8268911278,
        "timestamp": "2025-12-12T09:49:08.395436+00:00",
        "meta_object_name": "DIRECTV 8",
        "meta_object_id": "2005-019A",
        "meta_epoch": "2025-12-12T03:54:38.682144",
        "meta_mean_motion": 1.00271701,
        "meta_eccentricity": 0.0003037,
        "meta_inclination": 0.0178,
        "meta_ra_of_asc_node": 56.8844,
        "meta_arg_of_pericenter": 208.6512,
        "meta_mean_anomaly": 115.1956,
        "meta_ephemeris_type": 0,
        "meta_classification_type": "U",
        "meta_norad_cat_id": 28659,
        "meta_element_set_no": 999,
        "meta_rev_at_epoch": 7519,
        "meta_bstar": 0,
        "meta_mean_motion_dot": 1.1e-07,
        "meta_mean_motion_ddot": 0,
        "tle_line1": "1 28659U 05019A   25346.16294771  .00000011  00000+0  00000+0 0  9992",
        "tle_line2": "2 28659   0.0178  56.8844 0003037 208.6512 115.1956  1.00271701 75199"
      },
      "geometry": {
        "type": "Point",
        "coordinates": [
          109.57772330893975,
          0.021008481072049372
        ]
      }
    },
    {
      "type": "Feature",
      "properties": {
        "norad_id": 28702,
        "name": "GALAXY 28 (G-28)",
        "group": "intelsat",
        "lat": 2.4129338709047907,
        "lon": 139.89427708346142,
        "alt_km": 35792.33640581393,
        "timestamp": "2025-12-12T09:49:08.395448+00:00",
        "meta_object_name": "GALAXY 28 (G-28)",
        "meta_object_id": "2005-022A",
        "meta_epoch": "2025-12-12T02:47:11.001984",
        "meta_mean_motion": 1.00271997,
        "meta_eccentricity": 0.0002786,
        "meta_inclination": 2.8171,
        "meta_ra_of_asc_node": 81.288,
        "meta_arg_of_pericenter": 182.7726,
        "meta_mean_anomaly": 130.1154,
        "meta_ephemeris_type": 0,
        "meta_classification_type": "U",
        "meta_norad_cat_id": 28702,
        "meta_element_set_no": 999,
        "meta_rev_at_epoch": 5009,
        "meta_bstar": 0,
        "meta_mean_motion_dot": -1.78e-06,
        "meta_mean_motion_ddot": 0,
        "tle_line1": "1 28702U 05022A   25346.11609956 -.00000178  00000+0  00000+0 0  9990",
        "tle_line2": "2 28702   2.8171  81.2880 0002786 182.7726 130.1154  1.00271997 50098"
      },
      "geometry": {
        "type": "Point",
        "coordinates": [
          139.89427708346142,
          2.4129338709047907
        ]
      }
    },
    {
      "type": "Feature",
      "properties": {
        "norad_id": 29236,
        "name": "GALAXY 16 (G-16)",
        "group": "intelsat",
        "lat": 0.009927890542317987,
        "lon": 129.60608593161186,
        "alt_km": 35792.99174370182,
        "timestamp": "2025-12-12T09:49:08.395460+00:00",
        "meta_object_name": "GALAXY 16 (G-16)",
        "meta_object_id": "2006-023A",
        "meta_epoch": "2025-12-12T02:44:11.289120",
        "meta_mean_motion": 1.00272293,
        "meta_eccentricity": 0.0002667,
        "meta_inclination": 0.0475,
        "meta_ra_of_asc_node": 136.4139,
        "meta_arg_of_pericenter": 121.805,
        "meta_mean_anomaly": 124.8874,
        "meta_ephemeris_type": 0,
        "meta_classification_type": "U",
        "meta_norad_cat_id": 29236,
        "meta_element_set_no": 999,
        "meta_rev_at_epoch": 7109,
        "meta_bstar": 0,
        "meta_mean_motion_dot": -1.17e-06,
        "meta_mean_motion_ddot": 0,
        "tle_line1": "1 29236U 06023A   25346.11401955 -.00000117  00000+0  00000+0 0  9997",
        "tle_line2": "2 29236   0.0475 136.4139 0002667 121.8050 124.8874  1.00272293 71092"
      },
      "geometry": {
        "type": "Point",
        "coordinates": [
          129.60608593161186,
          0.009927890542317987
        ]
      }
    },
    {
      "type": "Feature",
      "properties": {
        "norad_id": 29494,
        "name": "DIRECTV 9S",
        "group": "intelsat",
        "lat": 1.3618847641774905,
        "lon": 127.38447570618652,
        "alt_km": 35795.23610408067,
        "timestamp": "2025-12-12T09:49:08.395472+00:00",
        "meta_object_name": "DIRECTV 9S",
        "meta_object_id": "2006-043A",
        "meta_epoch": "2025-12-12T03:38:38.555232",
        "meta_mean_motion": 1.0027183,
        "meta_eccentricity": 0.0003029,
        "meta_inclination": 1.939,
        "meta_ra_of_asc_node": 83.2161,
        "meta_arg_of_pericenter": 180.9812,
        "meta_mean_anomaly": 130.3532,
        "meta_ephemeris_type": 0,
        "meta_classification_type": "U",
        "meta_norad_cat_id": 29494,
        "meta_element_set_no": 999,
        "meta_rev_at_epoch": 4950,
        "meta_bstar": 0,
        "meta_mean_motion_dot": -1.04e-06,
        "meta_mean_motion_ddot": 0,
        "tle_line1": "1 29494U 06043A   25346.15183513 -.00000104  00000+0  00000+0 0  9992",
        "tle_line2": "2 29494   1.9390  83.2161 0003029 180.9812 130.3532  1.00271830 49503"
      },
      "geometry": {
        "type": "Point",
        "coordinates": [
          127.38447570618652,
          1.3618847641774905
        ]
      }
    }
  ]
}